CCSDS_OMM_VERS = 2.0
CREATION_DATE  = 
ORIGINATOR     = 

OBJECT_NAME    = ATLAS CENTAUR 2
OBJECT_ID      = 1963-047A
CENTER_NAME    = EARTH
REF_FRAME      = TEME
TIME_SYSTEM    = UTC
MEAN_ELEMENT_THEORY = SGP/SGP4

EPOCH          = 2026-03-27T06:56:47.009472
MEAN_MOTION    = 14.12134786
ECCENTRICITY   = .05474302
INCLINATION    = 30.3568
RA_OF_ASC_NODE = 97.2780
ARG_OF_PERICENTER = 235.4085
MEAN_ANOMALY   = 119.3695

EPHEMERIS_TYPE = 0
CLASSIFICATION_TYPE = U
NORAD_CAT_ID   = 694
ELEMENT_SET_NO = 999
REV_AT_EPOCH   = 13411
BSTAR          = .2376512E-3
MEAN_MOTION_DOT = .2064E-4
MEAN_MOTION_DDOT = 0

CCSDS_OMM_VERS = 2.0
CREATION_DATE  = 
ORIGINATOR     = 

OBJECT_NAME    = THOR AGENA D R/B
OBJECT_ID      = 1964-002A
CENTER_NAME    = EARTH
REF_FRAME      = TEME
TIME_SYSTEM    = UTC
MEAN_ELEMENT_THEORY = SGP/SGP4

EPOCH          = 2026-03-27T07:32:39.667200
MEAN_MOTION    = 14.34029111
ECCENTRICITY   = .0032494
INCLINATION    = 99.1217
RA_OF_ASC_NODE = 100.6123
ARG_OF_PERICENTER = 205.5937
MEAN_ANOMALY   = 154.3639

EPHEMERIS_TYPE = 0
CLASSIFICATION_TYPE = U
NORAD_CAT_ID   = 733
ELEMENT_SET_NO = 999
REV_AT_EPOCH   = 24082
BSTAR          = .83366947E-4
MEAN_MOTION_DOT = .185E-5
MEAN_MOTION_DDOT = 0

CCSDS_OMM_VERS = 2.0
CREATION_DATE  = 
ORIGINATOR     = 

OBJECT_NAME    = SL-3 R/B
OBJECT_ID      = 1964-053B
CENTER_NAME    = EARTH
REF_FRAME      = TEME
TIME_SYSTEM    = UTC
MEAN_ELEMENT_THEORY = SGP/SGP4

EPOCH          = 2026-03-27T06:42:20.332800
MEAN_MOTION    = 14.61379761
ECCENTRICITY   = .00803619
INCLINATION    = 65.0755
RA_OF_ASC_NODE = 279.6662
ARG_OF_PERICENTER = 286.6935
MEAN_ANOMALY   = 72.5356

EPHEMERIS_TYPE = 0
CLASSIFICATION_TYPE = U
NORAD_CAT_ID   = 877
ELEMENT_SET_NO = 999
REV_AT_EPOCH   = 26936
BSTAR          = .58140147E-4
MEAN_MOTION_DOT = .175E-5
MEAN_MOTION_DDOT = 0

CCSDS_OMM_VERS = 2.0
CREATION_DATE  = 
ORIGINATOR     = 

OBJECT_NAME    = SL-8 R/B
OBJECT_ID      = 1967-045B
CENTER_NAME    = EARTH
REF_FRAME      = TEME
TIME_SYSTEM    = UTC
MEAN_ELEMENT_THEORY = SGP/SGP4

EPOCH          = 2026-03-27T01:59:36.093696
MEAN_MOTION    = 14.45636216
ECCENTRICITY   = .00648192
INCLINATION    = 74.0114
RA_OF_ASC_NODE = 315.6078
ARG_OF_PERICENTER = 318.0077
MEAN_ANOMALY   = 41.6121

EPHEMERIS_TYPE = 0
CLASSIFICATION_TYPE = U
NORAD_CAT_ID   = 2802
ELEMENT_SET_NO = 999
REV_AT_EPOCH   = 9153
BSTAR          = .87336413E-4
MEAN_MOTION_DOT = .288E-5
MEAN_MOTION_DDOT = 0

CCSDS_OMM_VERS = 2.0
CREATION_DATE  = 
ORIGINATOR     = 

OBJECT_NAME    = SL-8 R/B
OBJECT_ID      = 1968-040B
CENTER_NAME    = EARTH
REF_FRAME      = TEME
TIME_SYSTEM    = UTC
MEAN_ELEMENT_THEORY = SGP/SGP4

EPOCH          = 2026-03-27T06:40:53.772960
MEAN_MOTION    = 15.03370079
ECCENTRICITY   = .00232636
INCLINATION    = 74.0295
RA_OF_ASC_NODE = 277.7492
ARG_OF_PERICENTER = 94.5782
MEAN_ANOMALY   = 265.8065

EPHEMERIS_TYPE = 0
CLASSIFICATION_TYPE = U
NORAD_CAT_ID   = 3230
ELEMENT_SET_NO = 999
REV_AT_EPOCH   = 9265
BSTAR          = .26699204E-3
MEAN_MOTION_DOT = .3608E-4
MEAN_MOTION_DDOT = 0

CCSDS_OMM_VERS = 2.0
CREATION_DATE  = 
ORIGINATOR     = 

OBJECT_NAME    = OAO 2
OBJECT_ID      = 1968-110A
CENTER_NAME    = EARTH
REF_FRAME      = TEME
TIME_SYSTEM    = UTC
MEAN_ELEMENT_THEORY = SGP/SGP4

EPOCH          = 2026-03-27T07:20:25.907424
MEAN_MOTION    = 14.47317361
ECCENTRICITY   = .00058636
INCLINATION    = 34.9925
RA_OF_ASC_NODE = 166.8650
ARG_OF_PERICENTER = 333.7103
MEAN_ANOMALY   = 26.3289

EPHEMERIS_TYPE = 0
CLASSIFICATION_TYPE = U
NORAD_CAT_ID   = 3597
ELEMENT_SET_NO = 999
REV_AT_EPOCH   = 2165
BSTAR          = .64507527E-4
MEAN_MOTION_DOT = .22E-5
MEAN_MOTION_DDOT = 0

CCSDS_OMM_VERS = 2.0
CREATION_DATE  = 
ORIGINATOR     = 

OBJECT_NAME    = ISIS 1
OBJECT_ID      = 1969-009A
CENTER_NAME    = EARTH
REF_FRAME      = TEME
TIME_SYSTEM    = UTC
MEAN_ELEMENT_THEORY = SGP/SGP4

EPOCH          = 2026-03-27T05:50:01.788864
MEAN_MOTION    = 11.30418635
ECCENTRICITY   = .17078657
INCLINATION    = 88.4511
RA_OF_ASC_NODE = 153.3932
ARG_OF_PERICENTER = 53.7537
MEAN_ANOMALY   = 320.9520

EPHEMERIS_TYPE = 0
CLASSIFICATION_TYPE = U
NORAD_CAT_ID   = 3669
ELEMENT_SET_NO = 999
REV_AT_EPOCH   = 35051
BSTAR          = .61760693E-4
MEAN_MOTION_DOT = .107E-5
MEAN_MOTION_DDOT = 0

CCSDS_OMM_VERS = 2.0
CREATION_DATE  = 
ORIGINATOR     = 

OBJECT_NAME    = SERT 2
OBJECT_ID      = 1970-009A
CENTER_NAME    = EARTH
REF_FRAME      = TEME
TIME_SYSTEM    = UTC
MEAN_ELEMENT_THEORY = SGP/SGP4

EPOCH          = 2026-03-27T07:25:24.915360
MEAN_MOTION    = 13.58731443
ECCENTRICITY   = .00056034
INCLINATION    = 99.2780
RA_OF_ASC_NODE = 28.4408
ARG_OF_PERICENTER = 114.8718
MEAN_ANOMALY   = 3.2949

EPHEMERIS_TYPE = 0
CLASSIFICATION_TYPE = U
NORAD_CAT_ID   = 4327
ELEMENT_SET_NO = 999
REV_AT_EPOCH   = 78228
BSTAR          = .6194893E-4
MEAN_MOTION_DOT = .4E-7
MEAN_MOTION_DDOT = 0

CCSDS_OMM_VERS = 2.0
CREATION_DATE  = 
ORIGINATOR     = 

OBJECT_NAME    = SL-3 R/B
OBJECT_ID      = 1971-028B
CENTER_NAME    = EARTH
REF_FRAME      = TEME
TIME_SYSTEM    = UTC
MEAN_ELEMENT_THEORY = SGP/SGP4

EPOCH          = 2026-03-27T06:35:04.113024
MEAN_MOTION    = 15.62663062
ECCENTRICITY   = .00142226
INCLINATION    = 81.2367
RA_OF_ASC_NODE = 30.2871
ARG_OF_PERICENTER = 212.0026
MEAN_ANOMALY   = 148.0366

EPHEMERIS_TYPE = 0
CLASSIFICATION_TYPE = U
NORAD_CAT_ID   = 5118
ELEMENT_SET_NO = 999
REV_AT_EPOCH   = 99141
BSTAR          = .47440719E-3
MEAN_MOTION_DOT = .42829E-3
MEAN_MOTION_DDOT = 0

CCSDS_OMM_VERS = 2.0
CREATION_DATE  = 
ORIGINATOR     = 

OBJECT_NAME    = ASTEX 1
OBJECT_ID      = 1971-089A
CENTER_NAME    = EARTH
REF_FRAME      = TEME
TIME_SYSTEM    = UTC
MEAN_ELEMENT_THEORY = SGP/SGP4

EPOCH          = 2026-03-27T04:53:02.757696
MEAN_MOTION    = 14.50787127
ECCENTRICITY   = .00166112
INCLINATION    = 92.7095
RA_OF_ASC_NODE = 157.4206
ARG_OF_PERICENTER = 33.1794
MEAN_ANOMALY   = 327.0451

EPHEMERIS_TYPE = 0
CLASSIFICATION_TYPE = U
NORAD_CAT_ID   = 5560
ELEMENT_SET_NO = 999
REV_AT_EPOCH   = 86484
BSTAR          = .10529713E-3
MEAN_MOTION_DOT = .414E-5
MEAN_MOTION_DDOT = 0

CCSDS_OMM_VERS = 2.0
CREATION_DATE  = 
ORIGINATOR     = 

OBJECT_NAME    = SL-8 R/B
OBJECT_ID      = 1971-119B
CENTER_NAME    = EARTH
REF_FRAME      = TEME
TIME_SYSTEM    = UTC
MEAN_ELEMENT_THEORY = SGP/SGP4

EPOCH          = 2026-03-27T06:11:46.954176
MEAN_MOTION    = 14.38199129
ECCENTRICITY   = .0546608
INCLINATION    = 73.8858
RA_OF_ASC_NODE = 142.8731
ARG_OF_PERICENTER = 105.7868
MEAN_ANOMALY   = 260.4240

EPHEMERIS_TYPE = 0
CLASSIFICATION_TYPE = U
NORAD_CAT_ID   = 5730
ELEMENT_SET_NO = 999
REV_AT_EPOCH   = 65801
BSTAR          = .36907188E-3
MEAN_MOTION_DOT = .7042E-4
MEAN_MOTION_DDOT = 0

CCSDS_OMM_VERS = 2.0
CREATION_DATE  = 
ORIGINATOR     = 

OBJECT_NAME    = OAO 3 (COPERNICUS)
OBJECT_ID      = 1972-065A
CENTER_NAME    = EARTH
REF_FRAME      = TEME
TIME_SYSTEM    = UTC
MEAN_ELEMENT_THEORY = SGP/SGP4

EPOCH          = 2026-03-27T07:18:43.634880
MEAN_MOTION    = 14.60011502
ECCENTRICITY   = .00072288
INCLINATION    = 35.0049
RA_OF_ASC_NODE = 196.9532
ARG_OF_PERICENTER = 302.3481
MEAN_ANOMALY   = 83.5825

EPHEMERIS_TYPE = 0
CLASSIFICATION_TYPE = U
NORAD_CAT_ID   = 6153
ELEMENT_SET_NO = 999
REV_AT_EPOCH   = 84877
BSTAR          = .71021227E-4
MEAN_MOTION_DOT = .325E-5
MEAN_MOTION_DDOT = 0

